IRIDIUM 150             
1 43257U 18030J   24240.60309044  .00000420  00000+0  14282-3 0  9996
2 43257  86.4002 205.6825 0002016  85.8921 274.2506 14.34221212335765
IRIDIUM 143             
1 43258U 18030K   24240.86314121  .00000198  00000+0  63677-4 0  9992
2 43258  86.4004 205.6406 0002055  90.4578 269.6854 14.34218042335734
IRIDIUM 161             
1 43478U 18047C   24240.73401007  .00001043  00000+0  30425-3 0  9994
2 43478  86.4539   3.6352 0001989  92.7493 267.3936 14.43271407330165
IRIDIUM 152             
1 43479U 18047D   24240.76609053  .00000003  00000+0 -58169-5 0  9992
2 43479  86.4012   3.4817 0001904  93.6846 266.4568 14.34217555328112
IRIDIUM 147             
1 43480U 18047E   24240.77243169  .00000312  00000+0  10440-3 0  9997
2 43480  86.4017   3.4724 0002221  93.0674 267.0776 14.34216514328114
IRIDIUM 110             
1 43481U 18047F   24240.63923961  .00000298  00000+0  99344-4 0  9992
2 43481  86.4017   3.6026 0002486  86.6323 273.5157 14.34218151328084
IRIDIUM 162             
1 43482U 18047G   24240.72772806  .00001051  00000+0  30646-3 0  9990
2 43482  86.4538   3.5370 0002223  86.0882 274.0573 14.43269033330151
